STARLINK-37162          
1 68262C 26055A   26116.35256944 -.02646900  00000+0 -41266-1 0  1165
2 68262  53.1597  98.9569 0000929  81.5442 262.4361 15.54575586    12
STARLINK-37156          
1 68263C 26055B   26116.35326389 -.01979200  00000+0 -34613-1 0  1166
2 68263  53.1595  99.1942 0001329  93.7335 135.6472 15.51029691    12
STARLINK-37163          
1 68264C 26055C   26116.30187500 -.02769100  00000+0 -47128-1 0  1164
2 68264  53.1596  99.3500 0000920  90.6178 255.9310 15.52195733    12
STARLINK-37133          
1 68265C 26055D   26116.33381944 -.02083700  00000+0 -32610-1 0  1161
2 68265  53.1598  99.1295 0001495  86.4736 111.9093 15.54183378    18
STARLINK-37042          
1 68266C 26055E   26116.35812500 -.02658500  00000+0 -42090-1 0  1160
2 68266  53.1598  98.9360 0000839  83.2562 288.6249 15.54155335    19
STARLINK-37103          
1 68267C 26055F   26116.34909722  .00013147  00000+0  23593-3 0  1160
2 68267  53.1595  99.3296 0000958  89.6770  59.0228 15.49299594    10
STARLINK-36999          
1 68268C 26055G   26116.30395833 -.03006900  00000+0 -20660-1 0  1163
2 68268  53.1593  98.6386 0001107 126.8722 214.6673 15.75512979    16
STARLINK-36962          
1 68269C 26055H   26116.30256944 -.02810500  00000+0 -28431-1 0  1165
2 68269  53.1593  98.7639 0001243 106.7080 169.4811 15.66063177    16
STARLINK-37028          
1 68270C 26055J   26116.34840278 -.01744900  00000+0 -30903-1 0  1166
2 68270  53.1596  99.1676 0001207  86.8346 138.9829 15.50554652    16
STARLINK-37029          
1 68271C 26055K   26116.35187500  .00036763  00000+0  65956-3 0  1166
2 68271  53.1594  99.3022 0001422  67.1022 103.6905 15.49294795    15
STARLINK-36974          
1 68272C 26055L   26116.33590278 -.02075400  00000+0 -37814-1 0  1160
2 68272  53.1592 100.2386 0001248  48.0985 328.9391 15.49914750    12
STARLINK-37019          
1 68273C 26055M   26116.34354167 -.02703300  00000+0 -50221-1 0  1161
2 68273  53.1597  99.1461 0001308  89.2245 131.0933 15.49678082    11
STARLINK-37129          
1 68274C 26055N   26116.31784722 -.02712400  00000+0 -43955-1 0  1160
2 68274  53.1597  99.1062 0001439  78.0966  79.0368 15.53535861    15
STARLINK-37123          
1 68275C 26055P   26116.36229167 -.02705700  00000+0 -47279-1 0  1161
2 68275  53.1598  98.8808 0001190  68.3230 342.9406 15.51420827    19
STARLINK-37125          
1 68276C 26055Q   26116.30673611 -.02812700  00000+0 -41158-1 0  1162
2 68276  53.1597  99.1284 0001283  73.4760  36.8691 15.56395931    16
STARLINK-36989          
1 68277C 26055R   26116.34909722 -.02843600  00000+0 -33319-1 0  1165
2 68277  53.1593  98.5279 0001344  84.9233  96.7145 15.62321828    10
STARLINK-36982          
1 68278C 26055S   26116.35326389 -.02608400  00000+0 -57783-1 0  1167
2 68278  53.1594  99.2935 0001360  85.0521  93.5501 15.44501709    18
STARLINK-36934          
1 68279C 26055T   26116.33659722 -.02674100  00000+0 -55694-1 0  1165
2 68279  53.1594  99.2808 0001441  87.7361  43.7193 15.46354298    14
STARLINK-37070          
1 68280C 26055U   26116.34423611 -.02871500  00000+0 -26559-1 0  1165
2 68280  53.1595  98.4120 0001247 118.3702 104.1817 15.68328495    18
STARLINK-37134          
1 68281C 26055V   26116.34562500 -.02028400  00000+0 -35424-1 0  1161
2 68281  53.1597  99.0611 0001423  88.4276 179.7834 15.51094134    11
STARLINK-37160          
1 68282C 26055W   26116.34423611 -.02895300  00000+0 -30886-1 0  1169
2 68282  53.1596  98.4691 0001346  94.4311 100.5705 15.64761771    14
STARLINK-37124          
1 68283C 26055X   26116.34840278 -.02073500  00000+0 -34031-1 0  1168
2 68283  53.1598  98.9506 0001062  90.8171 240.8414 15.52860846    11
STARLINK-37159          
1 68284C 26055Y   26116.32895833 -.02773700  00000+0 -61334-1 0  1169
2 68284  53.1595 100.0418 0001038  70.0486  19.9084 15.44639072    12
STARLINK-36725          
1 68285C 26055Z   26116.30256944 -.02085500  00000+0 -35583-1 0  1163
2 68285  53.1597  99.2161 0001257  86.0292 326.5944 15.51778529    15
STARLINK-36998          
1 68286C 26055AA  26116.31506944 -.02905500  00000+0 -33679-1 0  1168
2 68286  53.1595  98.6087 0000981  83.3913 308.8069 15.62633449    11
STARLINK-37165          
1 68287C 26055AB  26116.34354167 -.02831400  00000+0 -33949-1 0  1167
2 68287  53.1595  98.4817 0001474  85.6417 100.1253 15.61715507    16
STARLINK-37016          
1 68288C 26055AC  26116.35951389 -.02689400  00000+0 -50786-1 0  1167
2 68288  53.1594  99.2548 0001376  89.2179 128.1364 15.49201915    14
STARLINK-37010          
1 68289C 26055AD  26116.35395833 -.02753100  00000+0 -35676-1 0  1164
2 68289  53.1594  98.4998 0001325  86.1690 124.3562 15.59631674    11
STARLINK-37151          
1 68290C 26055AE  26116.33381944 -.00234500  00000+0 -53760-2 0  1163
2 68290  53.1594  99.3142 0001579  90.2528  13.6290 15.42286211    14
STARLINK-37107          
1 68294C 26057A   26116.31506944  .00171010  00000+0  11483-2 0  1166
2 68294  97.2858 241.0936 0001608  53.6635 163.3336 15.75114540    17
STARLINK-37147          
1 68295C 26057B   26116.36090278 -.00073140  00000+0 -49126-3 0  1163
2 68295  97.2851 241.1306 0001662  83.6102  11.2096 15.75232365    15
STARLINK-37142          
1 68296C 26057C   26116.32756944  .00017529  00000+0  11769-3 0  1168
2 68296  97.2859 241.1241 0001436  88.7859 241.1377 15.75196111    10
STARLINK-37115          
1 68297C 26057D   26116.31159722  .00041146  00000+0  27626-3 0  1160
2 68297  97.2844 241.1445 0001486  84.8850 246.5209 15.75183359    17
STARLINK-36355          
1 68298C 26057E   26116.33798611 -.00016348  00000+0 -10976-3 0  1167
2 68298  97.2836 241.1824 0001827  70.6182  72.3185 15.75212263    15
STARLINK-37118          
1 68299C 26057F   26116.32062500  .00042425  00000+0  28481-3 0  1161
2 68299  97.2843 241.1489 0001540  78.8881 291.6755 15.75185116    14
STARLINK-36875          
1 68300C 26057G   26116.35951389 -.00031180  00000+0 -20942-3 0  1161
2 68300  97.2835 241.2185 0001429  67.9619 230.9727 15.75212736    10
STARLINK-37099          
1 68301C 26057H   26116.30673611  .00014514  00000+0  97444-4 0  1168
2 68301  97.2838 241.1590 0001637  63.1082 284.7437 15.75196745    12
STARLINK-37007          
1 68302C 26057J   26116.32340278  .00032877  00000+0  22077-3 0  1162
2 68302  97.2847 241.2126 0001379  91.9012  74.3913 15.75184969    11
STARLINK-36300          
1 68303C 26057K   26116.35048611 -.00026699  00000+0 -17925-3 0  1165
2 68303  97.2847 241.2463 0001202  85.1758 246.5801 15.75219104    12
STARLINK-36849          
1 68304C 26057L   26116.36576389 -.00067346  00000+0 -45229-3 0  1167
2 68304  97.2849 241.1911 0001483  80.0704 174.2802 15.75232345    18
STARLINK-36277          
1 68305C 26057M   26116.34215278 -.00021463  00000+0 -14414-3 0  1165
2 68305  97.2857 241.0971 0001615  95.5161 225.0554 15.75209906    14
STARLINK-36307          
1 68306C 26057N   26116.32479167  .00016327  00000+0  10962-3 0  1168
2 68306  97.2835 241.2046 0001287  67.8768  86.2836 15.75195161    13
STARLINK-36264          
1 68307C 26057P   26116.31923611  .00009039  00000+0  60702-4 0  1166
2 68307  97.2861 241.1034 0001454  92.0158 168.6907 15.75194565    19
STARLINK-37138          
1 68308C 26057Q   26116.34979167 -.00005320  00000+0 -35721-4 0  1161
2 68308  97.2863 241.1385 0001509  83.6492   0.2068 15.75206741    18
STARLINK-37149          
1 68309C 26057R   26116.33381944  .00017867  00000+0  11993-3 0  1162
2 68309  97.2864 241.1133 0001271  84.9676 248.3770 15.75201050    18
STARLINK-37148          
1 68310C 26057S   26116.30534722  .00114650  00000+0  77138-3 0  1166
2 68310  97.2862 241.1057 0001330  82.8588 141.2160 15.75098587    11
STARLINK-37140          
1 68311C 26057T   26116.33381944 -.00013303  00000+0 -89316-4 0  1163
2 68311  97.2843 241.1968 0001780  72.0261  95.2936 15.75211060    12
STARLINK-36854          
1 68312C 26057U   26116.35395833 -.00064256  00000+0 -43155-3 0  1161
2 68312  97.2853 241.2699 0001503  86.2363 313.1887 15.75229853    15
STARLINK-36815          
1 68313C 26057V   26116.29909722  .00012387  00000+0  83165-4 0  1165
2 68313  97.2841 241.1964 0001602  78.5184 334.0263 15.75198983    11
STARLINK-37155          
1 68314C 26057W   26116.33798611 -.00047824  00000+0 -32118-3 0  1161
2 68314  97.2842 241.2417 0001446  76.1045 208.8131 15.75222558    11
STARLINK-37150          
1 68315C 26057X   26116.34215278 -.00021537  00000+0 -14463-3 0  1162
2 68315  97.2864 241.1406 0001641  91.1246 331.4382 15.75209257    12
STARLINK-37154          
1 68316C 26057Y   26116.34840278 -.00017351  00000+0 -11649-3 0  1169
2 68316  97.2858 241.1670 0001638  93.5092  52.4639 15.75213378    14
STARLINK-37139          
1 68317C 26057Z   26116.34631944 -.00022720  00000+0 -15376-3 0  1165
2 68317  97.2841 241.2169 0003276  76.2583 180.1785 15.75026613    19
STARLINK-37113          
1 68318C 26057AA  26116.33243056 -.00042659  00000+0 -28642-3 0  1161
2 68318  97.2860 241.1456 0001467  78.2180 325.2390 15.75225404    17
STARLINK-36987          
1 68321C 26059A   26116.30048611 -.00022061  00000+0 -74338-3 0  1162
2 68321  53.1591 126.8331 0001614  79.5909 116.4959 15.30208378    14
STARLINK-37088          
1 68322C 26059B   26116.36645833 -.00007006  00000+0 -12569-3 0  1168
2 68322  53.1598 126.1692 0001232  81.0646 299.7758 15.49315056    11
STARLINK-36983          
1 68323C 26059C   26116.34979167 -.00010639  00000+0 -19080-3 0  1168
2 68323  53.1584 126.5708 0001239  91.9325  37.2404 15.49329068    11
STARLINK-37164          
1 68324C 26059D   26116.34145833 -.00004372  00000+0 -14357-3 0  1163
2 68324  53.1600 126.9105 0001403  74.4628 213.8163 15.31027956    17
STARLINK-36309          
1 68325C 26059E   26116.34354167 -.00006636  00000+0 -11906-3 0  1168
2 68325  53.1599 126.1890 0001234  86.1901 210.7489 15.49316020    13
